NORAD_CAT_ID,OBJECT_NAME,OBJECT_TYPE,EPOCH,MEAN_MOTION,ECCENTRICITY,INCLINATION,RA_OF_ASC_NODE,ARG_OF_PERICENTER,MEAN_ANOMALY,BSTAR,MEAN_MOTION_DOT,MEAN_MOTION_DDOT,TLE_LINE0,TLE_LINE1,TLE_LINE2,SEMIMAJOR_AXIS,PERIOD,APOGEE,PERIGEE,DECAYED
52491.0,STARLINK-3908,PAYLOAD,2022-11-11 14:07:22,15.08834339,0.000226,53.2185,99.4343,43.3473,316.7696,-0.00012797,-2.324e-05,0.0,0 STARLINK-3908,1 52491U 22049AS  22315.58845061 -.00002324  00000-0 -12797-3 0  9990,2 52491  53.2185  99.4343 0002260  43.3473 316.7696 15.08834339 29264,6917.898,95.438,541.326,538.1990000000002,0.0
52491.0,STARLINK-3908,PAYLOAD,2022-11-11 20:28:54,15.08838002,0.0002083,53.218,98.2429,39.6059,320.5085,0.00025923,3.84e-05,0.0,0 STARLINK-3908,1 52491U 22049AS  22315.85341173  .00003840  00000-0  25923-3 0  9992,2 52491  53.2180  98.2429 0002083  39.6059 320.5085 15.08838002 29145,6917.886,95.438,541.192,538.311,0.0
52491.0,STARLINK-3908,PAYLOAD,2022-11-12 13:58:08,15.08855117,0.0002089,53.218,94.9725,39.4942,320.6202,0.00051222,7.877e-05,0.0,0 STARLINK-3908,1 52491U 22049AS  22316.58204580  .00007877  00000-0  51222-3 0  9998,2 52491  53.2180  94.9725 0002089  39.4942 320.6202 15.08855117 29410,6917.834,95.437,541.144,538.254,0.0
52491.0,STARLINK-3908,PAYLOAD,2022-11-12 17:08:54,15.08860442,0.0002141,53.2178,94.3777,40.4667,319.6484,0.00071577,0.00011128,0.0,0 STARLINK-3908,1 52491U 22049AS  22316.71452445  .00011128  00000-0  71577-3 0  9997,2 52491  53.2178  94.3777 0002141  40.4667 319.6484 15.08860442 29274,6917.818,95.436,541.164,538.202,0.0
52491.0,STARLINK-3908,PAYLOAD,2022-11-13 02:41:13,15.08858161,0.0002002,53.2184,92.5932,37.2814,322.8317,0.00023316,3.426e-05,0.0,0 STARLINK-3908,1 52491U 22049AS  22317.11195948  .00003426  00000-0  23316-3 0  9994,2 52491  53.2184  92.5932 0002002  37.2814 322.8317 15.08858161 29331,6917.825,95.436,541.075,538.305,0.0
52491.0,STARLINK-3908,PAYLOAD,2022-11-13 18:35:04,15.08843975,0.0001898,53.2185,89.6214,40.1852,319.928,7.6219e-05,9.25e-06,0.0,0 STARLINK-3908,1 52491U 22049AS  22317.77435939  .00000925  00000-0  76219-4 0  9995,2 52491  53.2185  89.6214 0001898  40.1852 319.9280 15.08843975 29590,6917.868,95.437,541.0459999999998,538.42,0.0
52491.0,STARLINK-3908,PAYLOAD,2022-11-14 08:53:33,15.08835404,0.0002488,53.2183,86.944,33.4171,326.6977,0.00036402,5.509e-05,0.0,0 STARLINK-3908,1 52491U 22049AS  22318.37052720  .00005509  00000-0  36402-3 0  9997,2 52491  53.2183  86.9440 0002488  33.4171 326.6977 15.08835404 29680,6917.894,95.438,541.481,538.038,0.0
52491.0,STARLINK-3908,PAYLOAD,2022-11-14 15:15:06,15.08842352,0.0002171,53.2182,85.7544,34.1087,326.0045,0.00066865,0.0001037,0.0,0 STARLINK-3908,1 52491U 22049AS  22318.63548658  .00010370  00000-0  66865-3 0  9994,2 52491  53.2182  85.7544 0002171  34.1087 326.0045 15.08842352 29561,6917.873000000001,95.437,541.24,538.236,0.0
52491.0,STARLINK-3908,PAYLOAD,2022-11-15 13:30:29,15.08846104,0.0002242,53.2185,81.5914,36.929,323.1856,0.00033104,4.985e-05,0.0,0 STARLINK-3908,1 52491U 22049AS  22319.56284561  .00004985  00000-0  33104-3 0  9992,2 52491  53.2185  81.5914 0002242  36.9290 323.1856 15.08846104 29707,6917.861999999999,95.437,541.278,538.1759999999998,0.0
52491.0,STARLINK-3908,PAYLOAD,2022-11-15 15:05:53,15.08845885,0.0002188,53.2184,81.2944,35.3631,324.7506,0.00035474,5.363e-05,0.0,0 STARLINK-3908,1 52491U 22049AS  22319.62908567  .00005363  00000-0  35474-3 0  9991,2 52491  53.2184  81.2944 0002188  35.3631 324.7506 15.08845885 29879,6917.861999999999,95.437,541.241,538.214,0.0
52491.0,STARLINK-3908,PAYLOAD,2022-11-15 19:52:02,15.0884496,0.0002218,53.2184,80.4021,35.2277,324.8862,0.00023417,3.441e-05,0.0,0 STARLINK-3908,1 52491U 22049AS  22319.82780508  .00003441  00000-0  23417-3 0  9995,2 52491  53.2184  80.4021 0002218  35.2277 324.8862 15.08844960 29740,6917.865,95.437,541.265,538.196,0.0
52491.0,STARLINK-3908,PAYLOAD,2022-11-16 06:59:44,15.08848136,0.0002236,53.2186,78.3207,35.7433,324.3708,0.00024282,3.579e-05,0.0,0 STARLINK-3908,1 52491U 22049AS  22320.29148316  .00003579  00000-0  24282-3 0  9996,2 52491  53.2186  78.3207 0002236  35.7433 324.3708 15.08848136 29814,6917.856,95.437,541.2669999999998,538.174,0.0
52491.0,STARLINK-3908,PAYLOAD,2022-11-16 14:56:39,15.08843892,0.0002249,53.2187,76.8342,35.0808,325.0332,6.901e-05,8.1e-06,0.0,0 STARLINK-3908,1 52491U 22049AS  22320.62268443  .00000810  00000-0  69010-4 0  9991,2 52491  53.2187  76.8342 0002249  35.0808 325.0332 15.08843892 30021,6917.868,95.437,541.289,538.178,0.0
52491.0,STARLINK-3908,PAYLOAD,2022-11-17 13:12:03,15.08846016,0.0002163,53.2191,72.6715,44.2182,315.8983,7.091899999999999e-05,8.41e-06,0.0,0 STARLINK-3908,1 52491U 22049AS  22321.55003897  .00000841  00000-0  70919-4 0  9998,2 52491  53.2191  72.6715 0002163  44.2182 315.8983 15.08846016 30004,6917.861999999999,95.437,541.2230000000002,538.231,0.0
52491.0,STARLINK-3908,PAYLOAD,2022-11-17 19:33:36,15.08834414,0.00022,53.2187,71.4819,35.7221,324.3918,-8.3039e-05,-1.609e-05,0.0,0 STARLINK-3908,1 52491U 22049AS  22321.81500612 -.00001609  00000-0 -83039-4 0  9996,2 52491  53.2187  71.4819 0002200  35.7221 324.3918 15.08834414 30048,6917.897,95.438,541.284,538.241,0.0
52491.0,STARLINK-3908,PAYLOAD,2022-11-18 09:52:04,15.08835358,0.0002098,53.2189,68.8055,32.6007,327.5114,-7.3539e-05,-1.458e-05,0.0,0 STARLINK-3908,1 52491U 22049AS  22322.41116727 -.00001458  00000-0 -73539-4 0  9999,2 52491  53.2189  68.8055 0002098  32.6007 327.5114 15.08835358 30136,6917.895,95.438,541.211,538.308,0.0
52491.0,STARLINK-3908,PAYLOAD,2022-11-18 16:13:37,15.08830641,0.0002156,53.2188,67.6166,33.0432,327.0694,-0.00010473,-1.954e-05,0.0,0 STARLINK-3908,1 52491U 22049AS  22322.67613191 -.00001954  00000-0 -10473-3 0  9992,2 52491  53.2188  67.6166 0002156  33.0432 327.0694 15.08830641 30179,6917.909000000002,95.438,541.265,538.2819999999998,0.0
52491.0,STARLINK-3908,PAYLOAD,2022-11-19 00:10:33,15.08839208,0.000223,53.2189,66.1299,34.0772,326.0363,1.257e-05,-8.8e-07,0.0,0 STARLINK-3908,1 52491U 22049AS  22323.00732911 -.00000088  00000-0  12570-4 0  9999,2 52491  53.2189  66.1299 0002230  34.0772 326.0363 15.08839208 30385,6917.8830000000025,95.438,541.29,538.205,0.0
52491.0,STARLINK-3908,PAYLOAD,2022-11-19 09:42:51,15.08852047,0.0002196,53.2189,64.3454,37.2211,322.8933,0.00034155,5.154e-05,0.0,0 STARLINK-3908,1 52491U 22049AS  22323.40476480  .00005154  00000-0  34155-3 0  9999,2 52491  53.2189  64.3454 0002196  37.2211 322.8933 15.08852047 30284,6917.844,95.437,541.2280000000002,538.189,0.0
52491.0,STARLINK-3908,PAYLOAD,2022-11-19 14:29:01,15.08851675,0.0002387,53.2181,63.4546,24.6943,335.4163,0.00052445,8.071e-05,0.0,0 STARLINK-3908,1 52491U 22049AS  22323.60348733  .00008071  00000-0  52445-3 0  9993,2 52491  53.2181  63.4546 0002387  24.6943 335.4163 15.08851675 30474,6917.845,95.437,541.361,538.058,0.0
52491.0,STARLINK-3908,PAYLOAD,2022-11-19 19:15:10,15.08843373,0.0002282,53.2183,62.5613,39.5619,320.5539,0.00026214,3.887e-05,0.0,0 STARLINK-3908,1 52491U 22049AS  22323.80220918  .00003887  00000-0  26214-3 0  9994,2 52491  53.2183  62.5613 0002282  39.5619 320.5539 15.08843373 30344,6917.87,95.437,541.314,538.156,0.0
52491.0,STARLINK-3908,PAYLOAD,2022-11-20 00:01:20,15.08845135,0.0002279,53.2184,61.6694,37.0511,323.0638,0.00029522,4.414e-05,0.0,0 STARLINK-3908,1 52491U 22049AS  22324.00092851  .00004414  00000-0  29522-3 0  9992,2 52491  53.2184  61.6694 0002279  37.0511 323.0638 15.08845135 30531,6917.865,95.437,541.306,538.153,0.0
52491.0,STARLINK-3908,PAYLOAD,2022-11-20 12:44:25,15.0884464,0.0002354,53.2189,59.2909,34.9489,325.1657,0.00018589,2.672e-05,0.0,0 STARLINK-3908,1 52491U 22049AS  22324.53084793  .00002672  00000-0  18589-3 0  9991,2 52491  53.2189  59.2909 0002354  34.9489 325.1657 15.08844640 30457,6917.866,95.437,541.36,538.1030000000002,0.0
52491.0,STARLINK-3908,PAYLOAD,2022-11-20 17:30:34,15.08842905,0.0002436,53.2191,58.399,35.3079,324.8074,0.00015986,2.257e-05,0.0,0 STARLINK-3908,1 52491U 22049AS  22324.72956887  .00002257  00000-0  15986-3 0  9991,2 52491  53.2191  58.3990 0002436  35.3079 324.8074 15.08842905 30485,6917.871999999999,95.437,541.422,538.0509999999998,0.0
52491.0,STARLINK-3908,PAYLOAD,2022-11-21 06:13:39,15.08838615,0.000249,53.2193,56.0204,36.064,324.052,-3.8486e-05,-9.01e-06,0.0,0 STARLINK-3908,1 52491U 22049AS  22325.25949043 -.00000901  00000-0 -38486-4 0  9993,2 52491  53.2193  56.0204 0002490  36.0640 324.0520 15.08838615 30720,6917.885,95.438,541.472,538.0269999999998,0.0
52491.0,STARLINK-3908,PAYLOAD,2022-11-21 12:35:12,15.08842753,0.0002458,53.2196,54.8312,36.9105,323.2056,1.6026e-05,-3.3e-07,0.0,0 STARLINK-3908,1 52491U 22049AS  22325.52444958 -.00000033  00000-0  16026-4 0  9999,2 52491  53.2196  54.8312 0002458  36.9105 323.2056 15.08842753 30608,6917.871999999999,95.437,541.437,538.0369999999998,0.0
52491.0,STARLINK-3908,PAYLOAD,2022-11-21 17:21:21,15.08847985,0.0002449,53.2202,53.9394,35.9564,324.1593,-4.0364e-06,-3.53e-06,0.0,0 STARLINK-3908,1 52491U 22049AS  22325.72316718 -.00000353  00000-0 -40364-5 0  9992,2 52491  53.2202  53.9394 0002449  35.9564 324.1593 15.08847985 30635,6917.856,95.437,541.415,538.0269999999998,0.0
52491.0,STARLINK-3908,PAYLOAD,2022-11-21 23:42:53,15.088463399999998,0.0002379,53.2203,52.7502,39.9612,320.1555,0.00014887,2.082e-05,0.0,0 STARLINK-3908,1 52491U 22049AS  22325.98812392  .00002082  00000-0  14887-3 0  9997,2 52491  53.2203  52.7502 0002379  39.9612 320.1555 15.08846340 30834,6917.861,95.437,541.372,538.08,0.0
52491.0,STARLINK-3908,PAYLOAD,2022-11-22 12:25:59,15.08837826,0.0002438,53.2204,50.3715,37.5271,322.5891,7.4881e-05,9.04e-06,0.0,0 STARLINK-3908,1 52491U 22049AS  22326.51805009  .00000904  00000-0  74881-4 0  9996,2 52491  53.2204  50.3715 0002438  37.5271 322.5891 15.08837826 30913,6917.887,95.438,541.439,538.065,0.0
